NOAA 15                 
1 25338U 98030A   23117.50824587  .00000302  00000+0  14388-3 0  9995
2 25338  98.6107 147.4211 0011598 101.4367 258.8116 14.26300886298031
NOAA 18                 
1 28654U 05018A   23117.50515137  .00000296  00000+0  18248-3 0  9992
2 28654  98.9109 192.1383 0014830 159.7642 200.4121 14.12922099924419
NOAA 19                 
1 33591U 09005A   23117.11833959  .00000273  00000+0  17200-3 0  9992
2 33591  99.1050 162.2174 0014248  30.8789 329.3217 14.12740977732735
METOP-B                 
1 38771U 12049A   23117.49917670  .00000193  00000+0  10806-3 0  9999
2 38771  98.6826 177.7103 0001397 115.6837   1.5913 14.21501545550348
SARAL                   
1 39086U 13009A   23117.16952792  .00000183  00000+0  84122-4 0  9996
2 39086  98.5485 303.2019 0003008  83.4706 276.6820 14.32181163531385
METOP-C                 
1 43689U 18087A   23117.51308025  .00000185  00000+0  10430-3 0  9996
2 43689  98.6871 177.8347 0002665 185.5758 174.5391 14.21495022231923
