[{"OBJECT_NAME":"NOAA 15","OBJECT_ID":"1998-030A","EPOCH":"2023-04-27T12:11:52.443168","MEAN_MOTION":14.26300886,"ECCENTRICITY":0.0011598,"INCLINATION":98.6107,"RA_OF_ASC_NODE":147.4211,"ARG_OF_PERICENTER":101.4367,"MEAN_ANOMALY":258.8116,"EPHEMERIS_TYPE":0,"CLASSIFICATION_TYPE":"U","NORAD_CAT_ID":25338,"ELEMENT_SET_NO":999,"REV_AT_EPOCH":29803,"BSTAR":0.00014388,"MEAN_MOTION_DOT":3.02e-6,"MEAN_MOTION_DDOT":0},{"OBJECT_NAME":"NOAA 18","OBJECT_ID":"2005-018A","EPOCH":"2023-04-27T12:07:25.078368","MEAN_MOTION":14.12922099,"ECCENTRICITY":0.001483,"INCLINATION":98.9109,"RA_OF_ASC_NODE":192.1383,"ARG_OF_PERICENTER":159.7642,"MEAN_ANOMALY":200.4121,"EPHEMERIS_TYPE":0,"CLASSIFICATION_TYPE":"U","NORAD_CAT_ID":28654,"ELEMENT_SET_NO":999,"REV_AT_EPOCH":92441,"BSTAR":0.00018248,"MEAN_MOTION_DOT":2.96e-6,"MEAN_MOTION_DDOT":0},{"OBJECT_NAME":"NOAA 19","OBJECT_ID":"2009-005A","EPOCH":"2023-04-27T02:50:24.540576","MEAN_MOTION":14.12740977,"ECCENTRICITY":0.0014248,"INCLINATION":99.105,"RA_OF_ASC_NODE":162.2174,"ARG_OF_PERICENTER":30.8789,"MEAN_ANOMALY":329.3217,"EPHEMERIS_TYPE":0,"CLASSIFICATION_TYPE":"U","NORAD_CAT_ID":33591,"ELEMENT_SET_NO":999,"REV_AT_EPOCH":73273,"BSTAR":0.000172,"MEAN_MOTION_DOT":2.73e-6,"MEAN_MOTION_DDOT":0},{"OBJECT_NAME":"METOP-B","OBJECT_ID":"2012-049A","EPOCH":"2023-04-27T11:58:48.866880","MEAN_MOTION":14.21501545,"ECCENTRICITY":0.0001397,"INCLINATION":98.6826,"RA_OF_ASC_NODE":177.7103,"ARG_OF_PERICENTER":115.6837,"MEAN_ANOMALY":1.5913,"EPHEMERIS_TYPE":0,"CLASSIFICATION_TYPE":"U","NORAD_CAT_ID":38771,"ELEMENT_SET_NO":999,"REV_AT_EPOCH":55034,"BSTAR":0.00010806,"MEAN_MOTION_DOT":1.93e-6,"MEAN_MOTION_DDOT":0},{"OBJECT_NAME":"SARAL","OBJECT_ID":"2013-009A","EPOCH":"2023-04-27T04:04:07.212288","MEAN_MOTION":14.32181163,"ECCENTRICITY":0.0003008,"INCLINATION":98.5485,"RA_OF_ASC_NODE":303.2019,"ARG_OF_PERICENTER":83.4706,"MEAN_ANOMALY":276.682,"EPHEMERIS_TYPE":0,"CLASSIFICATION_TYPE":"U","NORAD_CAT_ID":39086,"ELEMENT_SET_NO":999,"REV_AT_EPOCH":53138,"BSTAR":8.4122e-5,"MEAN_MOTION_DOT":1.83e-6,"MEAN_MOTION_DDOT":0},{"OBJECT_NAME":"METOP-C","OBJECT_ID":"2018-087A","EPOCH":"2023-04-27T12:18:50.133600","MEAN_MOTION":14.21495022,"ECCENTRICITY":0.0002665,"INCLINATION":98.6871,"RA_OF_ASC_NODE":177.8347,"ARG_OF_PERICENTER":185.5758,"MEAN_ANOMALY":174.5391,"EPHEMERIS_TYPE":0,"CLASSIFICATION_TYPE":"U","NORAD_CAT_ID":43689,"ELEMENT_SET_NO":999,"REV_AT_EPOCH":23192,"BSTAR":0.0001043,"MEAN_MOTION_DOT":1.85e-6,"MEAN_MOTION_DDOT":0}]
